SL-16 R/B               
1 22803U 93059B   26067.55934668 -.00000159  00000+0 -54694-4 0  9996
2 22803  70.9926  13.5091 0018581 218.1681 141.8128 14.17231804679377
ARIANE 40 R/B           
1 22830U 93061H   26067.16230288  .00000284  00000+0  12003-3 0  9997
2 22830  98.4918 136.0801 0009561 290.2132  69.8024 14.32860212693887
COSMOS 2278             
1 23087U 94023A   26067.60758207  .00000176  00000+0  11639-3 0  9990
2 23087  71.0551 177.3608 0007945  15.4087 344.7276 14.14378603644658
SL-16 R/B               
1 23088U 94023B   26067.44245301 -.00000219  00000+0 -88597-4 0  9997
2 23088  70.9986  73.5067 0005717 286.8109  73.2387 14.15012385645919
SL-16 R/B               
1 23343U 94074B   26067.58657413  .00000689  00000+0  99014-4 0  9998
2 23343  97.7111  98.4490 0005693 214.5903 263.0226 14.79406925687081
SL-16 R/B               
1 23405U 94077B   26067.49523020 -.00000099  00000+0 -26228-4 0  9990
2 23405  70.9853 355.0017 0003162 213.7146 146.3776 14.15561136616061
ARIANE 40+ R/B          
1 23561U 95021B   26067.65487714  .00000420  00000+0  14771-3 0  9995
2 23561  98.4499 139.1516 0007616 139.1413  22.9399 14.39771887619094
SL-16 R/B               
1 23705U 95058B   26067.57284039  .00000279  00000+0  16719-3 0  9997
2 23705  71.0218 182.5994 0010843 127.8668 232.3438 14.15494520567693
SL-16 R/B               
1 24298U 96051B   26067.60793481  .00000130  00000+0  97245-4 0  9999
2 24298  70.7603 177.5282 0015174 149.6177 210.5826 14.12415441521497
ORBVIEW 2 (SEASTAR)     
1 24883U 97037A   26067.44206271  .00000465  00000+0  17798-3 0  9997
2 24883  98.8565 231.7208 0003114  74.5185 285.6343 14.35494256508298
SL-16 R/B               
1 25400U 98043G   26067.46865897  .00000113  00000+0  66105-4 0  9995
2 25400  98.8251  20.8234 0010283  23.8724 336.2930 14.26049505438811
SL-16 R/B               
1 25407U 98045B   26067.58431644  .00000112  00000+0  80541-4 0  9995
2 25407  71.0116 183.8981 0006661   9.9145 350.2109 14.16189658426945
ISS (ZARYA)             
1 25544U 98067A   26067.41623043  .00011291  00000+0  21617-3 0  9997
2 25544  51.6319  78.6521 0008065 170.0958 190.0190 15.48526204556132
CZ-4B R/B               
1 25732U 99025C   26067.62816786  .00000073  00000+0  56299-4 0  9993
2 25732  98.6629 111.9349 0036802 349.7128 178.3200 14.18265179388017
OKEAN-O                 
1 25860U 99039A   26067.57048003  .00000956  00000+0  13223-3 0  9992
2 25860  97.9445 127.4734 0001279  70.0784 290.0565 14.80333794434228
SL-16 R/B               
1 25861U 99039B   26067.61892682  .00000834  00000+0  11255-3 0  9996
2 25861  97.9968 126.7173 0013468 259.9314 100.0379 14.81730291436700
DELTA 2 R/B             
1 25876U 99041E   26067.37987948  .00001618  00000+0  29818-3 0  9993
2 25876  51.7630 306.5124 0502357 344.5706  14.0376 14.11834821362841
