[{"OBJECT_NAME":"SL-16 R/B","OBJECT_ID":"1993-059B","EPOCH":"2026-03-08T13:25:27.553152","MEAN_MOTION":14.17231804,"ECCENTRICITY":0.00185814,"INCLINATION":70.9926,"RA_OF_ASC_NODE":13.5091,"ARG_OF_PERICENTER":218.1681,"MEAN_ANOMALY":141.8128,"EPHEMERIS_TYPE":0,"CLASSIFICATION_TYPE":"U","NORAD_CAT_ID":22803,"ELEMENT_SET_NO":999,"REV_AT_EPOCH":67937,"BSTAR":-5.4694394e-5,"MEAN_MOTION_DOT":-1.59e-6,"MEAN_MOTION_DDOT":0},{"OBJECT_NAME":"ARIANE 40 R/B","OBJECT_ID":"1993-061H","EPOCH":"2026-03-08T03:53:42.968832","MEAN_MOTION":14.32860212,"ECCENTRICITY":0.00095616,"INCLINATION":98.4918,"RA_OF_ASC_NODE":136.0801,"ARG_OF_PERICENTER":290.2132,"MEAN_ANOMALY":69.8024,"EPHEMERIS_TYPE":0,"CLASSIFICATION_TYPE":"U","NORAD_CAT_ID":22830,"ELEMENT_SET_NO":999,"REV_AT_EPOCH":69388,"BSTAR":0.00012002996,"MEAN_MOTION_DOT":2.84e-6,"MEAN_MOTION_DDOT":0},{"OBJECT_NAME":"COSMOS 2278","OBJECT_ID":"1994-023A","EPOCH":"2026-03-08T14:34:55.090848","MEAN_MOTION":14.14378603,"ECCENTRICITY":0.00079457,"INCLINATION":71.0551,"RA_OF_ASC_NODE":177.3608,"ARG_OF_PERICENTER":15.4087,"MEAN_ANOMALY":344.7276,"EPHEMERIS_TYPE":0,"CLASSIFICATION_TYPE":"U","NORAD_CAT_ID":23087,"ELEMENT_SET_NO":999,"REV_AT_EPOCH":64465,"BSTAR":0.00011638833,"MEAN_MOTION_DOT":1.76e-6,"MEAN_MOTION_DDOT":0},{"OBJECT_NAME":"SL-16 R/B","OBJECT_ID":"1994-023B","EPOCH":"2026-03-08T10:37:07.940064","MEAN_MOTION":14.15012385,"ECCENTRICITY":0.0005717,"INCLINATION":70.9986,"RA_OF_ASC_NODE":73.5067,"ARG_OF_PERICENTER":286.8109,"MEAN_ANOMALY":73.2387,"EPHEMERIS_TYPE":0,"CLASSIFICATION_TYPE":"U","NORAD_CAT_ID":23088,"ELEMENT_SET_NO":999,"REV_AT_EPOCH":64591,"BSTAR":-8.8597319e-5,"MEAN_MOTION_DOT":-2.19e-6,"MEAN_MOTION_DDOT":0},{"OBJECT_NAME":"SL-16 R/B","OBJECT_ID":"1994-074B","EPOCH":"2026-03-08T14:04:40.004832","MEAN_MOTION":14.79406925,"ECCENTRICITY":0.00056936,"INCLINATION":97.7111,"RA_OF_ASC_NODE":98.449,"ARG_OF_PERICENTER":214.5903,"MEAN_ANOMALY":263.0226,"EPHEMERIS_TYPE":0,"CLASSIFICATION_TYPE":"U","NORAD_CAT_ID":23343,"ELEMENT_SET_NO":999,"REV_AT_EPOCH":68708,"BSTAR":9.9013773e-5,"MEAN_MOTION_DOT":6.89e-6,"MEAN_MOTION_DDOT":0},{"OBJECT_NAME":"SL-16 R/B","OBJECT_ID":"1994-077B","EPOCH":"2026-03-08T11:53:07.889280","MEAN_MOTION":14.15561136,"ECCENTRICITY":0.00031622,"INCLINATION":70.9853,"RA_OF_ASC_NODE":355.0017,"ARG_OF_PERICENTER":213.7146,"MEAN_ANOMALY":146.3776,"EPHEMERIS_TYPE":0,"CLASSIFICATION_TYPE":"U","NORAD_CAT_ID":23405,"ELEMENT_SET_NO":999,"REV_AT_EPOCH":61606,"BSTAR":-2.622815e-5,"MEAN_MOTION_DOT":-9.9e-7,"MEAN_MOTION_DDOT":0},{"OBJECT_NAME":"ARIANE 40+ R/B","OBJECT_ID":"1995-021B","EPOCH":"2026-03-08T15:43:01.384896","MEAN_MOTION":14.39771887,"ECCENTRICITY":0.00076165,"INCLINATION":98.4499,"RA_OF_ASC_NODE":139.1516,"ARG_OF_PERICENTER":139.1413,"MEAN_ANOMALY":22.9399,"EPHEMERIS_TYPE":0,"CLASSIFICATION_TYPE":"U","NORAD_CAT_ID":23561,"ELEMENT_SET_NO":999,"REV_AT_EPOCH":61909,"BSTAR":0.00014771389,"MEAN_MOTION_DOT":4.2e-6,"MEAN_MOTION_DDOT":0},{"OBJECT_NAME":"SL-16 R/B","OBJECT_ID":"1995-058B","EPOCH":"2026-03-08T13:44:53.409696","MEAN_MOTION":14.1549452,"ECCENTRICITY":0.00108439,"INCLINATION":71.0218,"RA_OF_ASC_NODE":182.5994,"ARG_OF_PERICENTER":127.8668,"MEAN_ANOMALY":232.3438,"EPHEMERIS_TYPE":0,"CLASSIFICATION_TYPE":"U","NORAD_CAT_ID":23705,"ELEMENT_SET_NO":999,"REV_AT_EPOCH":56769,"BSTAR":0.00016719192,"MEAN_MOTION_DOT":2.79e-6,"MEAN_MOTION_DDOT":0},{"OBJECT_NAME":"SL-16 R/B","OBJECT_ID":"1996-051B","EPOCH":"2026-03-08T14:35:25.567584","MEAN_MOTION":14.12415441,"ECCENTRICITY":0.00151741,"INCLINATION":70.7603,"RA_OF_ASC_NODE":177.5282,"ARG_OF_PERICENTER":149.6177,"MEAN_ANOMALY":210.5826,"EPHEMERIS_TYPE":0,"CLASSIFICATION_TYPE":"U","NORAD_CAT_ID":24298,"ELEMENT_SET_NO":999,"REV_AT_EPOCH":52149,"BSTAR":9.7245429e-5,"MEAN_MOTION_DOT":1.3e-6,"MEAN_MOTION_DDOT":0},{"OBJECT_NAME":"ORBVIEW 2 (SEASTAR)","OBJECT_ID":"1997-037A","EPOCH":"2026-03-08T10:36:34.218144","MEAN_MOTION":14.35494256,"ECCENTRICITY":0.00031149,"INCLINATION":98.8565,"RA_OF_ASC_NODE":231.7208,"ARG_OF_PERICENTER":74.5185,"MEAN_ANOMALY":285.6343,"EPHEMERIS_TYPE":0,"CLASSIFICATION_TYPE":"U","NORAD_CAT_ID":24883,"ELEMENT_SET_NO":999,"REV_AT_EPOCH":50829,"BSTAR":0.00017797609,"MEAN_MOTION_DOT":4.65e-6,"MEAN_MOTION_DDOT":0},{"OBJECT_NAME":"SL-16 R/B","OBJECT_ID":"1998-043G","EPOCH":"2026-03-08T11:14:52.135008","MEAN_MOTION":14.26049505,"ECCENTRICITY":0.00102833,"INCLINATION":98.8251,"RA_OF_ASC_NODE":20.8234,"ARG_OF_PERICENTER":23.8724,"MEAN_ANOMALY":336.293,"EPHEMERIS_TYPE":0,"CLASSIFICATION_TYPE":"U","NORAD_CAT_ID":25400,"ELEMENT_SET_NO":999,"REV_AT_EPOCH":43881,"BSTAR":6.610468e-5,"MEAN_MOTION_DOT":1.13e-6,"MEAN_MOTION_DDOT":0},{"OBJECT_NAME":"SL-16 R/B","OBJECT_ID":"1998-045B","EPOCH":"2026-03-08T14:01:24.940416","MEAN_MOTION":14.16189658,"ECCENTRICITY":0.00066612,"INCLINATION":71.0116,"RA_OF_ASC_NODE":183.8981,"ARG_OF_PERICENTER":9.9145,"MEAN_ANOMALY":350.2109,"EPHEMERIS_TYPE":0,"CLASSIFICATION_TYPE":"U","NORAD_CAT_ID":25407,"ELEMENT_SET_NO":999,"REV_AT_EPOCH":42694,"BSTAR":8.0540552e-5,"MEAN_MOTION_DOT":1.12e-6,"MEAN_MOTION_DDOT":0},{"OBJECT_NAME":"ISS (ZARYA)","OBJECT_ID":"1998-067A","EPOCH":"2026-03-08T09:59:22.309152","MEAN_MOTION":15.48526204,"ECCENTRICITY":0.00080653,"INCLINATION":51.6319,"RA_OF_ASC_NODE":78.6521,"ARG_OF_PERICENTER":170.0958,"MEAN_ANOMALY":190.019,"EPHEMERIS_TYPE":0,"CLASSIFICATION_TYPE":"U","NORAD_CAT_ID":25544,"ELEMENT_SET_NO":999,"REV_AT_EPOCH":55613,"BSTAR":0.00021617095,"MEAN_MOTION_DOT":0.00011291,"MEAN_MOTION_DDOT":0},{"OBJECT_NAME":"CZ-4B R/B","OBJECT_ID":"1999-025C","EPOCH":"2026-03-08T15:04:33.703104","MEAN_MOTION":14.18265179,"ECCENTRICITY":0.0036802,"INCLINATION":98.6629,"RA_OF_ASC_NODE":111.9349,"ARG_OF_PERICENTER":349.7128,"MEAN_ANOMALY":178.32,"EPHEMERIS_TYPE":0,"CLASSIFICATION_TYPE":"U","NORAD_CAT_ID":25732,"ELEMENT_SET_NO":999,"REV_AT_EPOCH":38801,"BSTAR":5.6298554e-5,"MEAN_MOTION_DOT":7.3e-7,"MEAN_MOTION_DDOT":0},{"OBJECT_NAME":"OKEAN-O","OBJECT_ID":"1999-039A","EPOCH":"2026-03-08T13:41:29.474592","MEAN_MOTION":14.80333794,"ECCENTRICITY":0.00012798,"INCLINATION":97.9445,"RA_OF_ASC_NODE":127.4734,"ARG_OF_PERICENTER":70.0784,"MEAN_ANOMALY":290.0565,"EPHEMERIS_TYPE":0,"CLASSIFICATION_TYPE":"U","NORAD_CAT_ID":25860,"ELEMENT_SET_NO":999,"REV_AT_EPOCH":43422,"BSTAR":0.00013222741,"MEAN_MOTION_DOT":9.56e-6,"MEAN_MOTION_DDOT":0},{"OBJECT_NAME":"SL-16 R/B","OBJECT_ID":"1999-039B","EPOCH":"2026-03-08T14:51:15.277248","MEAN_MOTION":14.81730291,"ECCENTRICITY":0.0013468,"INCLINATION":97.9968,"RA_OF_ASC_NODE":126.7173,"ARG_OF_PERICENTER":259.9314,"MEAN_ANOMALY":100.0379,"EPHEMERIS_TYPE":0,"CLASSIFICATION_TYPE":"U","NORAD_CAT_ID":25861,"ELEMENT_SET_NO":999,"REV_AT_EPOCH":43670,"BSTAR":0.00011255424,"MEAN_MOTION_DOT":8.34e-6,"MEAN_MOTION_DDOT":0},{"OBJECT_NAME":"DELTA 2 R/B","OBJECT_ID":"1999-041E","EPOCH":"2026-03-08T09:07:01.587072","MEAN_MOTION":14.11834821,"ECCENTRICITY":0.05023574,"INCLINATION":51.763,"RA_OF_ASC_NODE":306.5124,"ARG_OF_PERICENTER":344.5706,"MEAN_ANOMALY":14.0376,"EPHEMERIS_TYPE":0,"CLASSIFICATION_TYPE":"U","NORAD_CAT_ID":25876,"ELEMENT_SET_NO":999,"REV_AT_EPOCH":36284,"BSTAR":0.00029817578,"MEAN_MOTION_DOT":1.618e-5,"MEAN_MOTION_DDOT":0}]
